{"type": "FeatureCollection", "features": [ {"type": "Feature", "properties": {"norad_id": 33153, "name": "INTELSAT 25 (IS-25)", "group": "intelsat", "lat": -2.2083689013807324, "lon": -4.998190461082425, "alt_km": 35786.86513204395, "timestamp": "2025-12-07T20:38:13.745102+00:00", "meta": {"OBJECT_NAME": "INTELSAT 25 (IS-25)", "OBJECT_ID": "2008-034A", "EPOCH": "2025-12-07T06:38:10.184928", "MEAN_MOTION": 1.00270614, "ECCENTRICITY": 0.00054455, "INCLINATION": 2.2131, "RA_OF_ASC_NODE": 82.7068, "ARG_OF_PERICENTER": 182.0154, "MEAN_ANOMALY": 239.6308, "EPHEMERIS_TYPE": 0, "CLASSIFICATION_TYPE": "U", "NORAD_CAT_ID": 33153, "ELEMENT_SET_NO": 999, "REV_AT_EPOCH": 6377, "BSTAR": 0, "MEAN_MOTION_DOT": -2.2e-06, "MEAN_MOTION_DDOT": 0}, "tle": {"line1": "1 33153U 08034A   25341.27650677 -.00000220  00000+0  00000+0 0  9998", "line2": "2 33153   2.2131  82.7068 0005445 182.0154 239.6308  1.00270614 63771"}}, "geometry": {"type": "Point", "coordinates": [-4.998190461082425, -2.2083689013807324]}}, {"type": "Feature", "properties": {"norad_id": 33376, "name": "GALAXY 19 (G-19)", "group": "intelsat", "lat": -0.027549702400995347, "lon": -70.55702100919162, "alt_km": 35772.747363484414, "timestamp": "2025-12-07T20:38:13.745114+00:00", "meta": {"OBJECT_NAME": "GALAXY 19 (G-19)", "OBJECT_ID": "2008-045A", "EPOCH": "2025-12-07T07:11:28.707648", "MEAN_MOTION": 1.00270676, "ECCENTRICITY": 0.00034599, "INCLINATION": 0.0269, "RA_OF_ASC_NODE": 70.3583, "ARG_OF_PERICENTER": 198.0545, "MEAN_ANOMALY": 178.7848, "EPHEMERIS_TYPE": 0, "CLASSIFICATION_TYPE": "U", "NORAD_CAT_ID": 33376, "ELEMENT_SET_NO": 999, "REV_AT_EPOCH": 6298, "BSTAR": 0, "MEAN_MOTION_DOT": -1.35e-06, "MEAN_MOTION_DDOT": 0}, "tle": {"line1": "1 33376U 08045A   25341.29963782 -.00000135  00000+0  00000+0 0  9998", "line2": "2 33376   0.0269  70.3583 0003459 198.0545 178.7848  1.00270676 62987"}}, "geometry": {"type": "Point", "coordinates": [-70.55702100919162, -0.027549702400995347]}}, {"type": "Feature", "properties": {"norad_id": 35493, "name": "FM-5", "group": "intelsat", "lat": -0.005453207091992995, "lon": -59.7141995582641, "alt_km": 35787.29819269025, "timestamp": "2025-12-07T20:38:13.745126+00:00", "meta": {"OBJECT_NAME": "FM-5", "OBJECT_ID": "2009-034A", "EPOCH": "2025-12-07T07:31:49.294272", "MEAN_MOTION": 1.00270941, "ECCENTRICITY": 5.693e-05, "INCLINATION": 0.019, "RA_OF_ASC_NODE": 288.6137, "ARG_OF_PERICENTER": 258.2784, "MEAN_ANOMALY": 276.256, "EPHEMERIS_TYPE": 0, "CLASSIFICATION_TYPE": "U", "NORAD_CAT_ID": 35493, "ELEMENT_SET_NO": 999, "REV_AT_EPOCH": 4472, "BSTAR": 0, "MEAN_MOTION_DOT": -1.96e-06, "MEAN_MOTION_DDOT": 0}, "tle": {"line1": "1 35493U 09034A   25341.31376498 -.00000196  00000+0  00000+0 0  9991", "line2": "2 35493   0.0190 288.6137 0000569 258.2784 276.2560  1.00270941 44726"}}, "geometry": {"type": "Point", "coordinates": [-59.7141995582641, -0.005453207091992995]}}, {"type": "Feature", "properties": {"norad_id": 36097, "name": "INTELSAT 14 (IS-14)", "group": "intelsat", "lat": -0.0028945380233030165, "lon": -18.53187060584093, "alt_km": 35784.65665290889, "timestamp": "2025-12-07T20:38:13.745138+00:00", "meta": {"OBJECT_NAME": "INTELSAT 14 (IS-14)", "OBJECT_ID": "2009-064A", "EPOCH": "2025-12-07T06:34:18.055776", "MEAN_MOTION": 1.00270968, "ECCENTRICITY": 0.0002726, "INCLINATION": 0.0091, "RA_OF_ASC_NODE": 351.7597, "ARG_OF_PERICENTER": 268.2545, "MEAN_ANOMALY": 229.8718, "EPHEMERIS_TYPE": 0, "CLASSIFICATION_TYPE": "U", "NORAD_CAT_ID": 36097, "ELEMENT_SET_NO": 999, "REV_AT_EPOCH": 5868, "BSTAR": 0, "MEAN_MOTION_DOT": -2.69e-06, "MEAN_MOTION_DDOT": 0}, "tle": {"line1": "1 36097U 09064A   25341.27382009 -.00000269  00000+0  00000+0 0  9996", "line2": "2 36097   0.0091 351.7597 0002726 268.2545 229.8718  1.00270968 58680"}}, "geometry": {"type": "Point", "coordinates": [-18.53187060584093, -0.0028945380233030165]}}, {"type": "Feature", "properties": {"norad_id": 36106, "name": "INTELSAT 15 (IS-15)", "group": "intelsat", "lat": 0.030993685874446588, "lon": 111.56563187305291, "alt_km": 35795.583131203624, "timestamp": "2025-12-07T20:38:13.745150+00:00", "meta": {"OBJECT_NAME": "INTELSAT 15 (IS-15)", "OBJECT_ID": "2009-067A", "EPOCH": "2025-12-07T02:03:15.489216", "MEAN_MOTION": 1.00270328, "ECCENTRICITY": 0.00024994, "INCLINATION": 0.0165, "RA_OF_ASC_NODE": 344.2169, "ARG_OF_PERICENTER": 276.1108, "MEAN_ANOMALY": 291.7578, "EPHEMERIS_TYPE": 0, "CLASSIFICATION_TYPE": "U", "NORAD_CAT_ID": 36106, "ELEMENT_SET_NO": 999, "REV_AT_EPOCH": 3930, "BSTAR": 0, "MEAN_MOTION_DOT": -1.8e-06, "MEAN_MOTION_DDOT": 0}, "tle": {"line1": "1 36106U 09067A   25341.08559594 -.00000180  00000+0  00000+0 0  9996", "line2": "2 36106   0.0165 344.2169 0002499 276.1108 291.7578  1.00270328 39305"}}, "geometry": {"type": "Point", "coordinates": [111.56563187305291, 0.030993685874446588]}}, {"type": "Feature", "properties": {"norad_id": 36131, "name": "DIRECTV 12", "group": "intelsat", "lat": -0.007562643536490357, "lon": -76.29812273375796, "alt_km": 35785.036416327, "timestamp": "2025-12-07T20:38:13.745162+00:00", "meta": {"OBJECT_NAME": "DIRECTV 12", "OBJECT_ID": "2009-075A", "EPOCH": "2025-12-06T14:53:20.048352", "MEAN_MOTION": 1.00272184, "ECCENTRICITY": 4.645e-05, "INCLINATION": 0.0503, "RA_OF_ASC_NODE": 138.3397, "ARG_OF_PERICENTER": 206.243, "MEAN_ANOMALY": 211.6829, "EPHEMERIS_TYPE": 0, "CLASSIFICATION_TYPE": "U", "NORAD_CAT_ID": 36131, "ELEMENT_SET_NO": 999, "REV_AT_EPOCH": 4462, "BSTAR": 0, "MEAN_MOTION_DOT": -9.7e-07, "MEAN_MOTION_DDOT": 0}, "tle": {"line1": "1 36131U 09075A   25340.62037093 -.00000097  00000+0  00000+0 0  9994", "line2": "2 36131   0.0503 138.3397 0000464 206.2430 211.6829  1.00272184 44629"}}, "geometry": {"type": "Point", "coordinates": [-76.29812273375796, -0.007562643536490357]}}, {"type": "Feature", "properties": {"norad_id": 36397, "name": "INTELSAT 16 (IS-16)", "group": "intelsat", "lat": -0.009556715297873894, "lon": -49.74901658000971, "alt_km": 35780.077794587436, "timestamp": "2025-12-07T20:38:13.745174+00:00", "meta": {"OBJECT_NAME": "INTELSAT 16 (IS-16)", "OBJECT_ID": "2010-006A", "EPOCH": "2025-12-07T06:34:14.024352", "MEAN_MOTION": 1.00270899, "ECCENTRICITY": 0.00023584, "INCLINATION": 0.0113, "RA_OF_ASC_NODE": 318.2366, "ARG_OF_PERICENTER": 301.1561, "MEAN_ANOMALY": 199.2694, "EPHEMERIS_TYPE": 0, "CLASSIFICATION_TYPE": "U", "NORAD_CAT_ID": 36397, "ELEMENT_SET_NO": 999, "REV_AT_EPOCH": 5773, "BSTAR": 0, "MEAN_MOTION_DOT": -2.4e-06, "MEAN_MOTION_DDOT": 0}, "tle": {"line1": "1 36397U 10006A   25341.27377343 -.00000240  00000+0  00000+0 0  9991", "line2": "2 36397   0.0113 318.2366 0002358 301.1561 199.2694  1.00270899 57737"}}, "geometry": {"type": "Point", "coordinates": [-49.74901658000971, -0.009556715297873894]}}, {"type": "Feature", "properties": {"norad_id": 37185, "name": "XM-5", "group": "intelsat", "lat": -0.020627164520581706, "lon": -88.7543481621231, "alt_km": 35789.45249940722, "timestamp": "2025-12-07T20:38:13.745185+00:00", "meta": {"OBJECT_NAME": "XM-5", "OBJECT_ID": "2010-053A", "EPOCH": "2025-12-06T21:40:40.643616", "MEAN_MOTION": 1.00268224, "ECCENTRICITY": 0.0001708, "INCLINATION": 0.0621, "RA_OF_ASC_NODE": 273.0037, "ARG_OF_PERICENTER": 248.6895, "MEAN_ANOMALY": 124.2219, "EPHEMERIS_TYPE": 0, "CLASSIFICATION_TYPE": "U", "NORAD_CAT_ID": 37185, "ELEMENT_SET_NO": 999, "REV_AT_EPOCH": 5555, "BSTAR": 0, "MEAN_MOTION_DOT": -1.7e-07, "MEAN_MOTION_DDOT": 0}, "tle": {"line1": "1 37185U 10053A   25340.90324819 -.00000017  00000+0  00000+0 0  9990", "line2": "2 37185   0.0621 273.0037 0001708 248.6895 124.2219  1.00268224 55551"}}, "geometry": {"type": "Point", "coordinates": [-88.7543481621231, -0.020627164520581706]}}, {"type": "Feature", "properties": {"norad_id": 37238, "name": "INTELSAT 17 (IS-17)", "group": "intelsat", "lat": 0.022469628270574266, "lon": 92.4234724277325, "alt_km": 35795.898047593655, "timestamp": "2025-12-07T20:38:13.745197+00:00", "meta": {"OBJECT_NAME": "INTELSAT 17 (IS-17)", "OBJECT_ID": "2010-065B", "EPOCH": "2025-12-07T05:23:09.869856", "MEAN_MOTION": 1.00271704, "ECCENTRICITY": 0.00024106, "INCLINATION": 0.0075, "RA_OF_ASC_NODE": 313.9965, "ARG_OF_PERICENTER": 302.5834, "MEAN_ANOMALY": 326.4653, "EPHEMERIS_TYPE": 0, "CLASSIFICATION_TYPE": "U", "NORAD_CAT_ID": 37238, "ELEMENT_SET_NO": 999, "REV_AT_EPOCH": 5132, "BSTAR": 0, "MEAN_MOTION_DOT": 3e-08, "MEAN_MOTION_DDOT": 0}, "tle": {"line1": "1 37238U 10065B   25341.22441979  .00000003  00000+0  00000+0 0  9999", "line2": "2 37238   0.0075 313.9965 0002410 302.5834 326.4653  1.00271704 51327"}}, "geometry": {"type": "Point", "coordinates": [92.4234724277325, 0.022469628270574266]}}, {"type": "Feature", "properties": {"norad_id": 37392, "name": "INTELSAT 28 (IS-28)", "group": "intelsat", "lat": -1.3061943639058091, "lon": -5.231775619382181, "alt_km": 35787.26141719064, "timestamp": "2025-12-07T20:38:13.745209+00:00", "meta": {"OBJECT_NAME": "INTELSAT 28 (IS-28)", "OBJECT_ID": "2011-016A", "EPOCH": "2025-12-07T06:38:10.184928", "MEAN_MOTION": 1.00270466, "ECCENTRICITY": 0.00041615, "INCLINATION": 1.31, "RA_OF_ASC_NODE": 85.1225, "ARG_OF_PERICENTER": 177.7306, "MEAN_ANOMALY": 241.2847, "EPHEMERIS_TYPE": 0, "CLASSIFICATION_TYPE": "U", "NORAD_CAT_ID": 37392, "ELEMENT_SET_NO": 999, "REV_AT_EPOCH": 5136, "BSTAR": 0, "MEAN_MOTION_DOT": -2.21e-06, "MEAN_MOTION_DDOT": 0}, "tle": {"line1": "1 37392U 11016A   25341.27650677 -.00000221  00000+0  00000+0 0  9992", "line2": "2 37392   1.3100  85.1225 0004161 177.7306 241.2847  1.00270466 51366"}}, "geometry": {"type": "Point", "coordinates": [-5.231775619382181, -1.3061943639058091]}}]}